{
    "links": {
        "self": "http://www.neowsapp.com/rest/v1/neo/3372211?api_key=iIulBulltgU6a56xZRHN4H3l9WmuAYTsLGpBGhQ2"
    },
    "id": "3372211",
    "neo_reference_id": "3372211",
    "name": "(2007 FN3)",
    "designation": "2007 FN3",
    "nasa_jpl_url": "http://ssd.jpl.nasa.gov/sbdb.cgi?sstr=3372211",
    "absolute_magnitude_h": 23.3,
    "estimated_diameter": {
        "kilometers": {
            "estimated_diameter_min": 0.058150704,
            "estimated_diameter_max": 0.130028927
        },
        "meters": {
            "estimated_diameter_min": 58.1507039646,
            "estimated_diameter_max": 130.0289270043
        },
        "miles": {
            "estimated_diameter_min": 0.0361331611,
            "estimated_diameter_max": 0.0807962044
        },
        "feet": {
            "estimated_diameter_min": 190.7831555951,
            "estimated_diameter_max": 426.6041048727
        }
    },
    "is_potentially_hazardous_asteroid": false,
    "close_approach_data": [
        {
            "close_approach_date": "2006-03-21",
            "close_approach_date_full": "2006-Mar-21 13:09",
            "epoch_date_close_approach": 1142946540000,
            "relative_velocity": {
                "kilometers_per_second": "23.3241058032",
                "kilometers_per_hour": "83966.7808914455",
                "miles_per_hour": "52173.6922711318"
            },
            "miss_distance": {
                "astronomical": "0.1736984581",
                "lunar": "67.5687002009",
                "kilometers": "25984919.354044247",
                "miles": "16146280.1736427286"
            },
            "orbiting_body": "Earth"
        },
        {
            "close_approach_date": "2007-03-21",
            "close_approach_date_full": "2007-Mar-21 13:23",
            "epoch_date_close_approach": 1174483380000,
            "relative_velocity": {
                "kilometers_per_second": "23.5442445772",
                "kilometers_per_hour": "84759.2804778714",
                "miles_per_hour": "52666.1206947085"
            },
            "miss_distance": {
                "astronomical": "0.1569218407",
                "lunar": "61.0425960323",
                "kilometers": "23475173.125199309",
                "miles": "14586796.1812721042"
            },
            "orbiting_body": "Earth"
        },
        {
            "close_approach_date": "2008-03-20",
            "close_approach_date_full": "2008-Mar-20 12:19",
            "epoch_date_close_approach": 1206015540000,
            "relative_velocity": {
                "kilometers_per_second": "23.7948451934",
                "kilometers_per_hour": "85661.4426962292",
                "miles_per_hour": "53226.6892131097"
            },
            "miss_distance": {
                "astronomical": "0.1482087453",
                "lunar": "57.6532019217",
                "kilometers": "22171712.612252511",
                "miles": "13776863.3756102118"
            },
            "orbiting_body": "Earth"
        }
    ],
    "orbital_data": {
        "orbit_id": "7",
        "orbit_determination_date": "2017-04-06 09:06:40",
        "first_observation_date": "2007-03-20",
        "last_observation_date": "2007-03-21",
        "data_arc_in_days": 1,
        "observations_used": 11,
        "orbit_uncertainty": "9",
        "minimum_orbit_intersection": ".14732",
        "jupiter_tisserand_invariant": "5.788",
        "epoch_osculation": "2454180.5",
        "eccentricity": ".2651435489429064",
        "semi_major_axis": ".9948859893176865",
        "inclination": "48.61340355403295",
        "ascending_node_longitude": "177.6023365192866",
        "orbital_period": "362.4585920915017",
        "perihelion_distance": ".7310983873164206",
        "perihelion_argument": "137.7748602230805",
        "aphelion_distance": "1.258673591318952",
        "perihelion_time": "2454294.577830221271",
        "mean_anomaly": "246.6959708619901",
        "mean_motion": ".9932169021644243",
        "equinox": "J2000",
        "orbit_class": {
            "orbit_class_type": "ATE",
            "orbit_class_description": "Near-Earth asteroid orbits similar to that of 2062 Aten",
            "orbit_class_range": "a (semi-major axis) < 1.0 AU; q (perihelion) > 0.983 AU"
        }
    },
    "is_sentry_object": false
}